HODOYOSHI-4             
1 40011U 14033B   25108.19075894  .00002306  00000+0  26506-3 0  9998
2 40011  97.5569 308.8300 0022765 273.3481  86.5131 14.86541489585643
DEIMOS-2                
1 40013U 14033D   25108.21343753  .00003423  00000+0  34473-3 0  9998
2 40013  97.6405 351.6367 0001100  67.4532 292.6803 14.91802642587198
HODOYOSHI-3             
1 40015U 14033F   25107.90357688  .00003254  00000+0  39551-3 0  9991
2 40015  97.6073 284.5551 0032685 316.2394  43.6231 14.83781713584544
SPOT 7                  
1 40053U 14034A   25108.19511838  .00000993  00000+0  21477-3 0  9990
2 40053  98.1154 175.3981 0001620  99.5861 260.5522 14.60378890575110
SKYSAT-B                
1 40072U 14037D   25107.76738539  .00002932  00000+0  33946-3 0  9994
2 40072  98.3400  39.4902 0005021 204.4363 155.6614 14.86335237582731
WORLDVIEW-3 (WV-3)      
1 40115U 14048A   25107.93972102  .00002291  00000+0  27452-3 0  9992
2 40115  97.8598 183.1122 0003854 287.1795  72.8997 14.85058812578796
GAOFEN-2                
1 40118U 14049A   25108.21932379  .00001913  00000+0  25635-3 0  9991
2 40118  98.0642 166.5703 0006446 142.0569 218.1098 14.80592948576366
YAOGAN-21               
1 40143U 14053A   25108.16433314  .00011307  00000+0  47215-3 0  9999
2 40143  97.2045 161.2699 0015091 199.8537 160.2116 15.23694985590253
YAOGAN-22               
1 40275U 14063A   25107.90475617 -.00000039  00000+0  18426-4 0  9993
2 40275 100.7065 248.3587 0006851  70.8963 289.2890 13.15508041503890
ASNARO                  
1 40298U 14070A   25108.23141657  .00015614  00000+0  73196-3 0  9995
2 40298  97.3794 189.6868 0007265 172.3195 187.8152 15.19746704579498
YAOGAN-24               
1 40310U 14072A   25108.14618379  .00001533  00000+0  22958-3 0  9997
2 40310  98.0903 238.4348 0014118 185.5276 174.5779 14.76068164561038
CBERS 4                 
1 40336U 14079A   25108.20618564  .00000280  00000+0  11215-3 0  9997
2 40336  98.3573 173.9311 0001900 109.8081 250.3310 14.35526740543008
YAOGAN-26               
1 40362U 14088A   25108.15671847  .00013916  00000+0  46484-3 0  9999
2 40362  97.0677 118.8544 0008065 131.7588 228.4345 15.31098722573805
SMAP                    
1 40376U 15003A   25108.19030188  .00001018  00000+0  20633-3 0  9991
2 40376  98.1299 116.2760 0001136  96.0101 264.1231 14.63325222545464
KOMPSAT-3A              
1 40536U 15014A   25108.18600361  .00018340  00000+0  54216-3 0  9996
2 40536  97.6529  71.6773 0001843  35.8583 324.2783 15.34986431556286
SENTINEL-2A             
1 40697U 15028A   25108.17968793  .00000277  00000+0  12251-3 0  9997
2 40697  98.5708 184.1057 0001094  96.8347 263.2960 14.30811377512957
GAOFEN-8                
1 40701U 15030A   25108.17201472  .00020251  00000+0  68663-3 0  9992
2 40701  97.6858 276.4244 0012044 258.1626 101.8264 15.30511615546136
CARBONITE 1 (CBNT-1)    
1 40718U 15032D   25108.18597146  .00003134  00000+0  40541-3 0  9995
2 40718  97.6460 299.9377 0013691 245.4573 114.5213 14.81505516526376
YAOGAN-27               
1 40878U 15040A   25108.22065225 -.00000024  00000+0  47962-4 0  9995
2 40878 100.0877 108.7584 0008971 113.3882 246.8176 13.16046444463275
GAOFEN-9 01             
1 40894U 15047A   25108.12855328  .00002267  00000+0  29207-3 0  9991
2 40894  97.6827 157.0061 0029563  93.1699 267.2898 14.81700086517222
YAOGAN-28               
1 41026U 15064A   25108.17952886  .00012283  00000+0  51386-3 0  9992
2 41026  97.2500 253.4483 0012705 224.8525 135.1686 15.23644598525920
YAOGAN-29               
1 41038U 15069A   25108.19247969  .00000846  00000+0  11191-3 0  9993
2 41038  98.0392 130.3188 0001354  29.4119 330.7170 14.82562200507645
KENT RIDGE 1            
1 41167U 15077B   25107.85623898  .00006892  00000+0  28073-3 0  9990
2 41167  14.9787 180.4681 0008902  13.9541 346.1026 15.19525593516365
TELEOS-1                
1 41169U 15077D   25107.95103306  .00160929  00000+0  11972-2 0  9991
2 41169  14.9769 348.1587 0004019  12.5514 347.4914 15.70849503518072
GAOFEN-4                
1 41194U 15083A   25107.98335542 -.00000325  00000+0  00000+0 0  9999
2 41194   0.0477  30.2431 0001365  11.2969 264.4991  1.00268982 34227
JASON-3                 
1 41240U 16002A   25107.88477122 -.00000039  00000+0  94622-4 0  9993
2 41240  66.0411 298.7049 0007618 272.4049  87.6094 12.80930265432526
SENTINEL-3A             
1 41335U 16011A   25108.15930588  .00000270  00000+0  12979-3 0  9999
2 41335  98.6286 176.5977 0000969  93.5802 266.5490 14.26738164477451
ZIYUAN 3-2 (ZY 3-2)     
1 41556U 16033A   25108.22211835  .00010352  00000+0  46183-3 0  9999
2 41556  97.4202 186.0183 0005714 334.1256  25.9693 15.21564703493379
CARTOSAT-2C             
1 41599U 16040A   25108.17258929  .00007926  00000+0  37752-3 0  9998
2 41599  97.4268 169.2199 0013643 171.1589 188.9889 15.19319221489187
SKYSAT-C1               
1 41601U 16040C   25107.66823452  .00013670  00000+0  47524-3 0  9995
2 41601  97.0116 158.3541 0004684  96.1435 264.0341 15.29823488492718
LAPAN-A3                
1 41603U 16040E   25108.16741262  .00005948  00000+0  21073-3 0  9991
2 41603  97.1393 114.8441 0013216  95.9785 264.2962 15.29386204489773
BIROS                   
1 41604U 16040F   25107.63476951  .00039082  00000+0  51111-3 0  9995
2 41604  97.0920 136.5703 0005875  35.7099 324.4550 15.58516401491246
GAOFEN-3                
1 41727U 16049A   25108.21153200  .00000152  00000+0  59465-4 0  9991
2 41727  98.4056 117.3580 0001272  67.9400 292.1925 14.42141542457383
SKYSAT-C4               
1 41771U 16058B   25107.81873744  .00016645  00000+0  48700-3 0  9990
2 41771  96.9624 145.4633 0002656  60.8087 299.3423 15.35313271479948
SKYSAT-C5               
1 41772U 16058C   25107.67425258  .00016860  00000+0  48163-3 0  9990
2 41772  97.1063 160.0813 0007733 221.7870 138.2785 15.36040569478467
SKYSAT-C2               
1 41773U 16058D   25107.62925738  .00010073  00000+0  33212-3 0  9993
2 41773  97.0458 142.8995 0005805 127.3874 232.7898 15.31612106479707
SKYSAT-C3               
1 41774U 16058E   25107.81702129  .00017483  00000+0  49269-3 0  9993
2 41774  96.9592 153.7013 0002593  78.7474 281.4062 15.36481676480496
ALSAT 1B                
1 41785U 16059C   25108.19453207  .00000779  00000+0  13226-3 0  9992
2 41785  97.7931 130.1112 0010241 144.8915 215.2969 14.71765117458058
PATHFINDER 1            
1 41787U 16059E   25107.93588688  .00001563  00000+0  28659-3 0  9995
2 41787  97.8162 121.8118 0030243 120.2216 240.1990 14.66808255457354
SCATSAT 1               
1 41790U 16059H   25107.74500033  .00003013  00000+0  41434-3 0  9994
2 41790  98.1741 161.1217 0056567 175.5588 184.6136 14.77993980 38715
GOKTURK 1A              
1 41875U 16073A   25108.18388463  .00000874  00000+0  18070-3 0  9996
2 41875  98.1192   4.0871 0001434  84.7789 275.3577 14.62743634446697
RESOURCESAT-2A          
1 41877U 16074A   25108.17413261  .00000313  00000+0  16203-3 0  9997
2 41877  98.6078 180.9199 0001739 135.5725 224.5592 14.21677557433927
CARTOSAT-2D             
1 41948U 17008A   25108.20476624  .00007299  00000+0  34929-3 0  9995
2 41948  97.4658 168.8175 0004398 270.0668  90.0063 15.19259621453052
SENTINEL-2B             
1 42063U 17013A   25108.17257377  .00000289  00000+0  12685-3 0  9995
2 42063  98.5652 184.0563 0001303  97.3782 262.7549 14.30820503423877
ZHUHAI-1 02 (CAS-4B)    
1 42759U 17034B   25107.90163405  .00073780  00000+0  10102-2 0  9995
2 42759  43.0090 274.2819 0019960 282.9867  76.8767 15.56245418434378
NUSAT-3 (MILANESAT)     
1 42760U 17034C   25107.74054828  .00153909  00000+0  11192-2 0  9999
2 42760  42.9965 243.7954 0023211 319.2490  40.6642 15.71751708434721
ZHUHAI-1 01 (CAS-4A)    
1 42761U 17034D   25107.90632465  .00077824  00000+0  10310-2 0  9999
2 42761  43.0126 271.8822 0021341 287.3593  72.4935 15.57073322434394
CARTOSAT-2E             
1 42767U 17036C   25108.15381974  .00004133  00000+0  19968-3 0  9993
2 42767  97.4828 168.3333 0002334 345.9230  14.1939 15.19197268433614
FORMOSAT-5              
1 42920U 17049A   25107.95477582  .00000517  00000+0  14251-3 0  9998
2 42920  98.2597 186.7662 0009867 310.0367  49.9961 14.50780028405018
SENTINEL-5P             
1 42969U 17064A   25107.96180023  .00000189  00000+0  11054-3 0  9993
2 42969  98.7547  49.0412 0001196  76.8255 283.3054 14.19510519389238
SKYSAT-C11              
1 42987U 17068A   25107.92043393  .00014680  00000+0  39775-3 0  9992
2 42987  97.3861 242.0075 0000654  94.0866 266.0454 15.37756911417514
SKYSAT-C10              
1 42988U 17068B   25107.92847847  .00017186  00000+0  56879-3 0  9997
2 42988  97.3969 238.7832 0005706  99.9287 260.2598 15.31375300417249
SKYSAT-C9               
1 42989U 17068C   25107.89311700  .00021332  00000+0  62797-3 0  9992
2 42989  97.3914 237.3083 0006602 196.7793 163.3232 15.35063195417458
SKYSAT-C8               
1 42990U 17068D   25107.90110788  .00017250  00000+0  57483-3 0  9999
2 42990  97.3991 237.6708 0001347  54.4601 305.6765 15.31167580417148
SKYSAT-C7               
1 42991U 17068E   25107.89725540  .00018271  00000+0  57880-3 0  9991
2 42991  97.3996 238.7594 0000879  38.2713 321.8591 15.32785290417212
SKYSAT-C6               
1 42992U 17068F   25107.92370653  .00017661  00000+0  59789-3 0  9999
2 42992  97.4026 239.6150 0002465 159.1386 200.9956 15.30650601417237
CARTOSAT-2F             
1 43111U 18004A   25108.18869178  .00007980  12409-7  37895-3 0  9999
2 43111  97.4585 169.1670 0000872 217.5327 142.5846 15.19291567387042
GAOFEN-1 02             
1 43259U 18031A   25108.18507601  .00001629  00000+0  24036-3 0  9995
2 43259  97.7761 171.4244 0003258 286.8028  73.2825 14.76591235379983
GAOFEN-1 03             
1 43260U 18031B   25108.16328427  .00001635  00000+0  24132-3 0  9996
2 43260  97.7756 171.3013 0004883 332.5538  27.5414 14.76580260379973
